COSMOS 2413 (712)       
1 28509U 04053B   15363.15903730  .00000053  00000-0  00000+0 0  9999
2 28509  63.1317 196.1884 0005604 159.6691 166.5989  2.13101868 85654
COSMOS 2419 (714)       
1 28915U 05050A   15362.74019266 -.00000025  00000-0  00000+0 0  9994
2 28915  65.2469  83.9556 0014371 350.1683  13.6676  2.13112974 77909
COSMOS 2425 (716)       
1 29670U 06062A   15363.13651822 -.00000049  00000-0  10000-3 0  9992
2 29670  65.7053 322.9027 0022824 339.5826  30.6657  2.13104923 70112
COSMOS 2426 (717)       
1 29671U 06062B   15362.66892845 -.00000051  00000-0  10000-3 0  9995
2 29671  65.7226 322.9963 0015859 174.0029  59.6485  2.13102986 70107
COSMOS 2424 (715)       
1 29672U 06062C   15363.35599669 -.00000048  00000-0  10000-3 0  9997
2 29672  65.7068 322.9048 0015245 173.0318  44.5344  2.13102083 70111
COSMOS 2433 (720)       
1 32275U 07052A   15363.45812986 -.00000028  00000-0  10000-3 0  9999
2 32275  65.2625  83.6991 0003028 239.7851 208.9494  2.13104990 63634
COSMOS 2432 (719)       
1 32276U 07052B   15362.60147759 -.00000025  00000-0  10000-3 0  9992
2 32276  65.2741  83.7913 0010715 334.4768 131.2831  2.13104208 63613
COSMOS 2434 (721)       
1 32393U 07065A   15363.10077251 -.00000049  00000-0  00000+0 0  9992
2 32393  65.3248 322.3081 0001307 122.9510 305.0854  2.13102714 62330
COSMOS 2436 (723)       
1 32395U 07065C   15363.20986932 -.00000049  00000-0  10000-3 0  9995
2 32395  65.3380 322.3441 0018042 345.6333 258.0832  2.13102766 62262
COSMOS 2443 (725)       
1 33379U 08046B   15363.34311240 -.00000028  00000-0  10000-3 0  9994
2 33379  65.1907  83.1361 0019188 185.3319  82.3595  2.13101443 56499
COSMOS 2456 (730)       
1 36111U 09070A   15362.28102458  .00000051  00000-0  00000+0 0  9990
2 36111  64.1862 201.9554 0003642 345.9330 341.9183  2.13102990 46971
COSMOS 2457 (733)       
1 36112U 09070B   15363.37421311  .00000052  00000-0  00000+0 0  9995
2 36112  64.1684 201.8489 0007293 146.8200  70.7666  2.13101656 47006
COSMOS 2458 (734)       
1 36113U 09070C   15363.02305632  .00000051  00000-0  10000-3 0  9999
2 36113  64.1735 201.8653 0002954  58.0225 297.3908  2.13101964 46992
COSMOS 2459 (731)       
1 36400U 10007A   15362.64116528 -.00000026  00000-0  10000-3 0  9994
2 36400  65.1693  82.8991 0027206 352.4742  56.3907  2.13102286 45347
COSMOS 2461 (735)       
1 36401U 10007B   15363.07112063 -.00000027  00000-0  10000-3 0  9994
2 36401  65.1624  82.8671 0005595  83.9931 205.2699  2.13102224 45345
COSMOS 2460 (732)       
1 36402U 10007C   15363.24331707 -.00000028  00000-0  10000-3 0  9993
2 36402  65.1527  82.8407 0001274 188.1117 275.3897  2.13101940 45352
COSMOS 2466 (738)       
1 37137U 10041A   15363.16196380 -.00000050  00000-0  10000-3 0  9999
2 37137  64.9090 322.4956 0018857 159.7975 178.8071  2.13102274 41429
COSMOS 2465 (737)       
1 37138U 10041B   15363.28433895 -.00000050  00000-0  00000+0 0  9993
2 37138  64.9257 322.5611 0033697 172.3077  82.6892  2.13102671 41421
COSMOS 2464 (736)       
1 37139U 10041C   15363.07558891 -.00000051  00000-0  00000+0 0  9996
2 37139  64.9278 322.5605 0022063   7.0837 222.3443  2.13102700 41429
COSMOS 2471 (701K)      
1 37372U 11009A   15363.03760785 -.00000027  00000-0  00000+0 0  9996
2 37372  65.1501  82.7975 0008473 229.4148 208.2844  2.13102950 37621
COSMOS 2474 (742)       
1 37829U 11055A   15363.43631594  .00000052  00000-0  00000+0 0  9990
2 37829  64.5101 202.2576 0005748 250.2697 106.0515  2.13101940 32999
COSMOS 2476 (744)       
1 37867U 11064A   15362.58831671  .00000051  00000-0  00000+0 0  9994
2 37867  64.4905 202.3718 0014563 246.1841 225.3355  2.13102035 32332
COSMOS 2477 (745)       
1 37868U 11064B   15363.58771723  .00000053  00000-0  00000+0 0  9999
2 37868  64.4987 202.3764 0012579 247.3712  90.2679  2.13101957 32306
COSMOS 2475 (743)       
1 37869U 11064C   15362.76520749  .00000051  00000-0  00000+0 0  9997
2 37869  64.5063 202.3906 0018368 278.9523 103.7311  2.13102203 32301
COSMOS 2478 (746)       
1 37938U 11071A   15363.42858047 -.00000028  00000-0  00000+0 0  9996
2 37938  65.1774  82.9998 0014196 238.1335 261.2246  2.13088289 31922
COSMOS 2485 (747)       
1 39155U 13019A   15363.29677604  .00000052  00000-0  00000+0 0  9992
2 39155  64.6593 202.2607 0014923 239.8362 100.3913  2.13102108 20815
COSMOS 2492 (754)       
1 39620U 14012A   15362.43795201 -.00000026  00000-0  10000-3 0  9999
2 39620  65.0408  82.8802 0014474 330.6365 103.3775  2.13103489 13752
COSMOS 2500 (755)       
1 40001U 14032A   15363.12365043 -.00000028  00000-0  00000+0 0  9997
2 40001  64.9818  82.8943 0007313 202.3979 261.7153  2.13102887 11989
COSMOS 2501 (702K)      
1 40315U 14075A   15363.07574402 -.00000052  00000-0  00000+0 0  9994
2 40315  64.6960 324.0710 0018601 240.7585 348.7244  2.13101359  8386
